STARLINK-36909          
1 67946U 26037Q   26064.83334490 -.01445466  59854-3 -40031-2 0  9998
2 67946  42.9998 222.2393 0001376 284.4899 306.6174 15.92980184  2577
STARLINK-36920          
1 67947U 26037R   26064.83334490 -.01452724  60480-3 -39973-2 0  9994
2 67947  43.0001 222.2313 0001153 279.3849 314.7677 15.93104569  2572
STARLINK-36873          
1 67948U 26037S   26064.83334490 -.01461701  61249-3 -39935-2 0  9992
2 67948  43.0001 222.2250 0001360 283.3484 313.3049 15.93240310  2576
STARLINK-36863          
1 67949U 26037T   26064.83334490 -.01503479  64589-3 -40787-2 0  9999
2 67949  43.0002 222.2173 0001583 282.4766 317.2538 15.93379628  2573
STARLINK-36887          
1 67950U 26037U   26064.83334490 -.01454135  60809-3 -39237-2 0  9994
2 67950  43.0000 222.2091 0001243 275.4378 327.4751 15.93474755  2573
STARLINK-36897          
1 67951U 26037V   26064.83334490 -.01455858  61018-3 -39018-2 0  9998
2 67951  43.0002 222.2025 0001255 278.7230 326.9457 15.93602578  2572
STARLINK-36381          
1 67952U 26037W   26064.83334490 -.01470982  62351-3 -38871-2 0  9991
2 67952  43.0003 222.1897 0001495 281.7131 328.9808 15.93870312  2575
STARLINK-36824          
1 67953U 26037X   26064.83334490 -.01444746  60241-3 -38459-2 0  9999
2 67953  43.0003 222.1961 0001409 282.6744 325.5152 15.93728385  2570
STARLINK-36869          
1 67954U 26037Y   26064.83334490 -.01439682  60009-3 -37793-2 0  9995
2 67954  43.0002 222.1839 0001433 283.1890 329.6648 15.93989924  2572
STARLINK-36872          
1 67955U 26037Z   26064.83334490 -.01440865  60247-3 -37328-2 0  9999
2 67955  43.0001 222.1695 0001438 280.7626 337.6797 15.94237290  2574
STARLINK-36918          
1 67956U 26037AA  26064.83334490 -.01437415  60055-3 -36997-2 0  9995
2 67956  43.0003 222.1622 0001439 281.9230 339.4543 15.94358488  2574
STARLINK-36829          
1 67957U 26037AB  26064.83334490 -.01436695  59854-3 -37466-2 0  9992
2 67957  43.0000 222.1776 0001554 282.2291 333.2341 15.94112749  2577
