CCSDS_OMM_VERS = 2.0
CREATION_DATE  = 
ORIGINATOR     = 

OBJECT_NAME    = STARLINK-36909
OBJECT_ID      = 2026-037Q
CENTER_NAME    = EARTH
REF_FRAME      = TEME
TIME_SYSTEM    = UTC
MEAN_ELEMENT_THEORY = SGP/SGP4

EPOCH          = 2026-03-05T20:00:00.999360
MEAN_MOTION    = 15.92980184
ECCENTRICITY   = .0001376
INCLINATION    = 42.9998
RA_OF_ASC_NODE = 222.2393
ARG_OF_PERICENTER = 284.4899
MEAN_ANOMALY   = 306.6174

EPHEMERIS_TYPE = 0
CLASSIFICATION_TYPE = U
NORAD_CAT_ID   = 67946
ELEMENT_SET_NO = 999
REV_AT_EPOCH   = 257
BSTAR          = -.40031E-2
MEAN_MOTION_DOT = -.1445466E-1
MEAN_MOTION_DDOT = .59854E-3

CCSDS_OMM_VERS = 2.0
CREATION_DATE  = 
ORIGINATOR     = 

OBJECT_NAME    = STARLINK-36920
OBJECT_ID      = 2026-037R
CENTER_NAME    = EARTH
REF_FRAME      = TEME
TIME_SYSTEM    = UTC
MEAN_ELEMENT_THEORY = SGP/SGP4

EPOCH          = 2026-03-05T20:00:00.999360
MEAN_MOTION    = 15.93104569
ECCENTRICITY   = .0001153
INCLINATION    = 43.0001
RA_OF_ASC_NODE = 222.2313
ARG_OF_PERICENTER = 279.3849
MEAN_ANOMALY   = 314.7677

EPHEMERIS_TYPE = 0
CLASSIFICATION_TYPE = U
NORAD_CAT_ID   = 67947
ELEMENT_SET_NO = 999
REV_AT_EPOCH   = 257
BSTAR          = -.39973E-2
MEAN_MOTION_DOT = -.1452724E-1
MEAN_MOTION_DDOT = .6048E-3

CCSDS_OMM_VERS = 2.0
CREATION_DATE  = 
ORIGINATOR     = 

OBJECT_NAME    = STARLINK-36873
OBJECT_ID      = 2026-037S
CENTER_NAME    = EARTH
REF_FRAME      = TEME
TIME_SYSTEM    = UTC
MEAN_ELEMENT_THEORY = SGP/SGP4

EPOCH          = 2026-03-05T20:00:00.999360
MEAN_MOTION    = 15.93240310
ECCENTRICITY   = .000136
INCLINATION    = 43.0001
RA_OF_ASC_NODE = 222.2250
ARG_OF_PERICENTER = 283.3484
MEAN_ANOMALY   = 313.3049

EPHEMERIS_TYPE = 0
CLASSIFICATION_TYPE = U
NORAD_CAT_ID   = 67948
ELEMENT_SET_NO = 999
REV_AT_EPOCH   = 257
BSTAR          = -.39935E-2
MEAN_MOTION_DOT = -.1461701E-1
MEAN_MOTION_DDOT = .61249E-3

CCSDS_OMM_VERS = 2.0
CREATION_DATE  = 
ORIGINATOR     = 

OBJECT_NAME    = STARLINK-36863
OBJECT_ID      = 2026-037T
CENTER_NAME    = EARTH
REF_FRAME      = TEME
TIME_SYSTEM    = UTC
MEAN_ELEMENT_THEORY = SGP/SGP4

EPOCH          = 2026-03-05T20:00:00.999360
MEAN_MOTION    = 15.93379628
ECCENTRICITY   = .0001583
INCLINATION    = 43.0002
RA_OF_ASC_NODE = 222.2173
ARG_OF_PERICENTER = 282.4766
MEAN_ANOMALY   = 317.2538

EPHEMERIS_TYPE = 0
CLASSIFICATION_TYPE = U
NORAD_CAT_ID   = 67949
ELEMENT_SET_NO = 999
REV_AT_EPOCH   = 257
BSTAR          = -.40787E-2
MEAN_MOTION_DOT = -.1503479E-1
MEAN_MOTION_DDOT = .64589E-3

CCSDS_OMM_VERS = 2.0
CREATION_DATE  = 
ORIGINATOR     = 

OBJECT_NAME    = STARLINK-36887
OBJECT_ID      = 2026-037U
CENTER_NAME    = EARTH
REF_FRAME      = TEME
TIME_SYSTEM    = UTC
MEAN_ELEMENT_THEORY = SGP/SGP4

EPOCH          = 2026-03-05T20:00:00.999360
MEAN_MOTION    = 15.93474755
ECCENTRICITY   = .0001243
INCLINATION    = 43.0000
RA_OF_ASC_NODE = 222.2091
ARG_OF_PERICENTER = 275.4378
MEAN_ANOMALY   = 327.4751

EPHEMERIS_TYPE = 0
CLASSIFICATION_TYPE = U
NORAD_CAT_ID   = 67950
ELEMENT_SET_NO = 999
REV_AT_EPOCH   = 257
BSTAR          = -.39237E-2
MEAN_MOTION_DOT = -.1454135E-1
MEAN_MOTION_DDOT = .60809E-3

CCSDS_OMM_VERS = 2.0
CREATION_DATE  = 
ORIGINATOR     = 

OBJECT_NAME    = STARLINK-36897
OBJECT_ID      = 2026-037V
CENTER_NAME    = EARTH
REF_FRAME      = TEME
TIME_SYSTEM    = UTC
MEAN_ELEMENT_THEORY = SGP/SGP4

EPOCH          = 2026-03-05T20:00:00.999360
MEAN_MOTION    = 15.93602578
ECCENTRICITY   = .0001255
INCLINATION    = 43.0002
RA_OF_ASC_NODE = 222.2025
ARG_OF_PERICENTER = 278.7230
MEAN_ANOMALY   = 326.9457

EPHEMERIS_TYPE = 0
CLASSIFICATION_TYPE = U
NORAD_CAT_ID   = 67951
ELEMENT_SET_NO = 999
REV_AT_EPOCH   = 257
BSTAR          = -.39018E-2
MEAN_MOTION_DOT = -.1455858E-1
MEAN_MOTION_DDOT = .61018E-3

CCSDS_OMM_VERS = 2.0
CREATION_DATE  = 
ORIGINATOR     = 

OBJECT_NAME    = STARLINK-36381
OBJECT_ID      = 2026-037W
CENTER_NAME    = EARTH
REF_FRAME      = TEME
TIME_SYSTEM    = UTC
MEAN_ELEMENT_THEORY = SGP/SGP4

EPOCH          = 2026-03-05T20:00:00.999360
MEAN_MOTION    = 15.93870312
ECCENTRICITY   = .0001495
INCLINATION    = 43.0003
RA_OF_ASC_NODE = 222.1897
ARG_OF_PERICENTER = 281.7131
MEAN_ANOMALY   = 328.9808

EPHEMERIS_TYPE = 0
CLASSIFICATION_TYPE = U
NORAD_CAT_ID   = 67952
ELEMENT_SET_NO = 999
REV_AT_EPOCH   = 257
BSTAR          = -.38871E-2
MEAN_MOTION_DOT = -.1470982E-1
MEAN_MOTION_DDOT = .62351E-3

CCSDS_OMM_VERS = 2.0
CREATION_DATE  = 
ORIGINATOR     = 

OBJECT_NAME    = STARLINK-36824
OBJECT_ID      = 2026-037X
CENTER_NAME    = EARTH
REF_FRAME      = TEME
TIME_SYSTEM    = UTC
MEAN_ELEMENT_THEORY = SGP/SGP4

EPOCH          = 2026-03-05T20:00:00.999360
MEAN_MOTION    = 15.93728385
ECCENTRICITY   = .0001409
INCLINATION    = 43.0003
RA_OF_ASC_NODE = 222.1961
ARG_OF_PERICENTER = 282.6744
MEAN_ANOMALY   = 325.5152

EPHEMERIS_TYPE = 0
CLASSIFICATION_TYPE = U
NORAD_CAT_ID   = 67953
ELEMENT_SET_NO = 999
REV_AT_EPOCH   = 257
BSTAR          = -.38459E-2
MEAN_MOTION_DOT = -.1444746E-1
MEAN_MOTION_DDOT = .60241E-3

CCSDS_OMM_VERS = 2.0
CREATION_DATE  = 
ORIGINATOR     = 

OBJECT_NAME    = STARLINK-36869
OBJECT_ID      = 2026-037Y
CENTER_NAME    = EARTH
REF_FRAME      = TEME
TIME_SYSTEM    = UTC
MEAN_ELEMENT_THEORY = SGP/SGP4

EPOCH          = 2026-03-05T20:00:00.999360
MEAN_MOTION    = 15.93989924
ECCENTRICITY   = .0001433
INCLINATION    = 43.0002
RA_OF_ASC_NODE = 222.1839
ARG_OF_PERICENTER = 283.1890
MEAN_ANOMALY   = 329.6648

EPHEMERIS_TYPE = 0
CLASSIFICATION_TYPE = U
NORAD_CAT_ID   = 67954
ELEMENT_SET_NO = 999
REV_AT_EPOCH   = 257
BSTAR          = -.37793E-2
MEAN_MOTION_DOT = -.1439682E-1
MEAN_MOTION_DDOT = .60009E-3

CCSDS_OMM_VERS = 2.0
CREATION_DATE  = 
ORIGINATOR     = 

OBJECT_NAME    = STARLINK-36872
OBJECT_ID      = 2026-037Z
CENTER_NAME    = EARTH
REF_FRAME      = TEME
TIME_SYSTEM    = UTC
MEAN_ELEMENT_THEORY = SGP/SGP4

EPOCH          = 2026-03-05T20:00:00.999360
MEAN_MOTION    = 15.94237290
ECCENTRICITY   = .0001438
INCLINATION    = 43.0001
RA_OF_ASC_NODE = 222.1695
ARG_OF_PERICENTER = 280.7626
MEAN_ANOMALY   = 337.6797

EPHEMERIS_TYPE = 0
CLASSIFICATION_TYPE = U
NORAD_CAT_ID   = 67955
ELEMENT_SET_NO = 999
REV_AT_EPOCH   = 257
BSTAR          = -.37328E-2
MEAN_MOTION_DOT = -.1440865E-1
MEAN_MOTION_DDOT = .60247E-3

CCSDS_OMM_VERS = 2.0
CREATION_DATE  = 
ORIGINATOR     = 

OBJECT_NAME    = STARLINK-36918
OBJECT_ID      = 2026-037AA
CENTER_NAME    = EARTH
REF_FRAME      = TEME
TIME_SYSTEM    = UTC
MEAN_ELEMENT_THEORY = SGP/SGP4

EPOCH          = 2026-03-05T20:00:00.999360
MEAN_MOTION    = 15.94358488
ECCENTRICITY   = .0001439
INCLINATION    = 43.0003
RA_OF_ASC_NODE = 222.1622
ARG_OF_PERICENTER = 281.9230
MEAN_ANOMALY   = 339.4543

EPHEMERIS_TYPE = 0
CLASSIFICATION_TYPE = U
NORAD_CAT_ID   = 67956
ELEMENT_SET_NO = 999
REV_AT_EPOCH   = 257
BSTAR          = -.36997E-2
MEAN_MOTION_DOT = -.1437415E-1
MEAN_MOTION_DDOT = .60055E-3

CCSDS_OMM_VERS = 2.0
CREATION_DATE  = 
ORIGINATOR     = 

OBJECT_NAME    = STARLINK-36829
OBJECT_ID      = 2026-037AB
CENTER_NAME    = EARTH
REF_FRAME      = TEME
TIME_SYSTEM    = UTC
MEAN_ELEMENT_THEORY = SGP/SGP4

EPOCH          = 2026-03-05T20:00:00.999360
MEAN_MOTION    = 15.94112749
ECCENTRICITY   = .0001554
INCLINATION    = 43.0000
RA_OF_ASC_NODE = 222.1776
ARG_OF_PERICENTER = 282.2291
MEAN_ANOMALY   = 333.2341

EPHEMERIS_TYPE = 0
CLASSIFICATION_TYPE = U
NORAD_CAT_ID   = 67957
ELEMENT_SET_NO = 999
REV_AT_EPOCH   = 257
BSTAR          = -.37466E-2
MEAN_MOTION_DOT = -.1436695E-1
MEAN_MOTION_DDOT = .59854E-3

